{"type": "FeatureCollection", "features": [ {"type": "Feature", "properties": {"norad_id": 43262, "name": "GAOFEN-1 04", "group": "resource", "lat": 40.24744615078231, "lon": -138.51804031944891, "alt_km": 637.3107251224737, "timestamp": "2025-12-02T17:49:11.683297+00:00", "meta": {"OBJECT_NAME": "GAOFEN-1 04", "OBJECT_ID": "2018-031D", "EPOCH": "2025-12-02T12:18:43.690752", "MEAN_MOTION": 14.76414891, "ECCENTRICITY": 0.0001383, "INCLINATION": 98.0822, "RA_OF_ASC_NODE": 34.3438, "ARG_OF_PERICENTER": 63.0601, "MEAN_ANOMALY": 297.0749, "EPHEMERIS_TYPE": 0, "CLASSIFICATION_TYPE": "U", "NORAD_CAT_ID": 43262, "ELEMENT_SET_NO": 999, "REV_AT_EPOCH": 41366, "BSTAR": 0.00020415, "MEAN_MOTION_DOT": 1.367e-05, "MEAN_MOTION_DDOT": 0}, "tle": {"line1": "1 43262U 18031D   25336.51300568  .00001367  00000+0  20415-3 0  9998", "line2": "2 43262  98.0822  34.3438 0001383  63.0601 297.0749 14.76414891413667"}}, "geometry": {"type": "Point", "coordinates": [-138.51804031944891, 40.24744615078231]}}, {"type": "Feature", "properties": {"norad_id": 43437, "name": "SENTINEL-3B", "group": "resource", "lat": -67.04238150637657, "lon": 63.074658433011535, "alt_km": 810.9402272491388, "timestamp": "2025-12-02T17:49:11.683307+00:00", "meta": {"OBJECT_NAME": "SENTINEL-3B", "OBJECT_ID": "2018-039A", "EPOCH": "2025-12-02T11:24:31.639680", "MEAN_MOTION": 14.26736355, "ECCENTRICITY": 0.0001473, "INCLINATION": 98.6281, "RA_OF_ASC_NODE": 41.8071, "ARG_OF_PERICENTER": 112.5255, "MEAN_ANOMALY": 247.6081, "EPHEMERIS_TYPE": 0, "CLASSIFICATION_TYPE": "U", "NORAD_CAT_ID": 43437, "ELEMENT_SET_NO": 999, "REV_AT_EPOCH": 39607, "BSTAR": 0.00010693, "MEAN_MOTION_DOT": 2.15e-06, "MEAN_MOTION_DDOT": 0}, "tle": {"line1": "1 43437U 18039A   25336.47536620  .00000215  00000+0  10693-3 0  9993", "line2": "2 43437  98.6281  41.8071 0001473 112.5255 247.6081 14.26736355396079"}}, "geometry": {"type": "Point", "coordinates": [63.074658433011535, -67.04238150637657]}}, {"type": "Feature", "properties": {"norad_id": 43461, "name": "GAOFEN-5 01", "group": "resource", "lat": 28.759828714523014, "lon": 124.20531045002329, "alt_km": 691.4391801543552, "timestamp": "2025-12-02T17:49:11.683316+00:00", "meta": {"OBJECT_NAME": "GAOFEN-5 01", "OBJECT_ID": "2018-043A", "EPOCH": "2025-12-02T10:33:15.427296", "MEAN_MOTION": 14.60390561, "ECCENTRICITY": 0.0001633, "INCLINATION": 98.4311, "RA_OF_ASC_NODE": 299.2281, "ARG_OF_PERICENTER": 12.9863, "MEAN_ANOMALY": 347.1378, "EPHEMERIS_TYPE": 0, "CLASSIFICATION_TYPE": "U", "NORAD_CAT_ID": 43461, "ELEMENT_SET_NO": 999, "REV_AT_EPOCH": 40297, "BSTAR": 0.0001498, "MEAN_MOTION_DOT": 6.76e-06, "MEAN_MOTION_DDOT": 0}, "tle": {"line1": "1 43461U 18043A   25336.43976189  .00000676  00000+0  14980-3 0  9993", "line2": "2 43461  98.4311 299.2281 0001633  12.9863 347.1378 14.60390561402971"}}, "geometry": {"type": "Point", "coordinates": [124.20531045002329, 28.759828714523014]}}, {"type": "Feature", "properties": {"norad_id": 43484, "name": "GAOFEN-6", "group": "resource", "lat": -71.75978945425355, "lon": 65.93804332782196, "alt_km": 656.0263401808752, "timestamp": "2025-12-02T17:49:11.683326+00:00", "meta": {"OBJECT_NAME": "GAOFEN-6", "OBJECT_ID": "2018-048A", "EPOCH": "2025-12-02T01:53:23.034912", "MEAN_MOTION": 14.76647441, "ECCENTRICITY": 0.00130072, "INCLINATION": 97.8045, "RA_OF_ASC_NODE": 40.7031, "ARG_OF_PERICENTER": 93.3192, "MEAN_ANOMALY": 266.9506, "EPHEMERIS_TYPE": 0, "CLASSIFICATION_TYPE": "U", "NORAD_CAT_ID": 43484, "ELEMENT_SET_NO": 999, "REV_AT_EPOCH": 40430, "BSTAR": 0.00015465224, "MEAN_MOTION_DOT": 1.033e-05, "MEAN_MOTION_DDOT": 0}, "tle": {"line1": "1 43484U 18048A   25336.07873883  .00001033  00000+0  15465-3 0  9997", "line2": "2 43484  97.8045  40.7031 0013007  93.3192 266.9506 14.76647441404300"}}, "geometry": {"type": "Point", "coordinates": [65.93804332782196, -71.75978945425355]}}, {"type": "Feature", "properties": {"norad_id": 43585, "name": "GAOFEN-11 01", "group": "resource", "lat": 9.439439395059654, "lon": 38.56615969641348, "alt_km": 418.75233309524356, "timestamp": "2025-12-02T17:49:11.683338+00:00", "meta": {"OBJECT_NAME": "GAOFEN-11 01", "OBJECT_ID": "2018-063A", "EPOCH": "2025-12-02T13:07:37.642944", "MEAN_MOTION": 15.48782121, "ECCENTRICITY": 0.0005041, "INCLINATION": 97.1583, "RA_OF_ASC_NODE": 39.5696, "ARG_OF_PERICENTER": 357.132, "MEAN_ANOMALY": 2.9902, "EPHEMERIS_TYPE": 0, "CLASSIFICATION_TYPE": "U", "NORAD_CAT_ID": 43585, "ELEMENT_SET_NO": 999, "REV_AT_EPOCH": 40984, "BSTAR": 0.00033084, "MEAN_MOTION_DOT": 0.00017699, "MEAN_MOTION_DDOT": 0}, "tle": {"line1": "1 43585U 18063A   25336.54696346  .00017699  00000+0  33084-3 0  9997", "line2": "2 43585  97.1583  39.5696 0005041 357.1320   2.9902 15.48782121409845"}}, "geometry": {"type": "Point", "coordinates": [38.56615969641348, 9.439439395059654]}}, {"type": "Feature", "properties": {"norad_id": 43613, "name": "ICESAT-2", "group": "resource", "lat": 45.008788204477405, "lon": 60.04735733297365, "alt_km": 476.7342607648925, "timestamp": "2025-12-02T17:49:11.683349+00:00", "meta": {"OBJECT_NAME": "ICESAT-2", "OBJECT_ID": "2018-070A", "EPOCH": "2025-12-02T10:56:45.209184", "MEAN_MOTION": 15.28307084, "ECCENTRICITY": 6.29e-05, "INCLINATION": 92.0055, "RA_OF_ASC_NODE": 237.9613, "ARG_OF_PERICENTER": 150.8821, "MEAN_ANOMALY": 209.2464, "EPHEMERIS_TYPE": 0, "CLASSIFICATION_TYPE": "U", "NORAD_CAT_ID": 43613, "ELEMENT_SET_NO": 999, "REV_AT_EPOCH": 40241, "BSTAR": 0.00057494, "MEAN_MOTION_DOT": 0.00015856, "MEAN_MOTION_DDOT": 0}, "tle": {"line1": "1 43613U 18070A   25336.45607881  .00015856  00000+0  57494-3 0  9997", "line2": "2 43613  92.0055 237.9613 0000629 150.8821 209.2464 15.28307084402419"}}, "geometry": {"type": "Point", "coordinates": [60.04735733297365, 45.008788204477405]}}, {"type": "Feature", "properties": {"norad_id": 43719, "name": "HYSIS", "group": "resource", "lat": -65.76721770989923, "lon": -158.46482803018537, "alt_km": 642.2322797417419, "timestamp": "2025-12-02T17:49:11.683358+00:00", "meta": {"OBJECT_NAME": "HYSIS", "OBJECT_ID": "2018-096A", "EPOCH": "2025-12-02T02:05:19.807584", "MEAN_MOTION": 14.78593325, "ECCENTRICITY": 0.00017552, "INCLINATION": 98.0111, "RA_OF_ASC_NODE": 39.1163, "ARG_OF_PERICENTER": 68.8994, "MEAN_ANOMALY": 291.2404, "EPHEMERIS_TYPE": 0, "CLASSIFICATION_TYPE": "U", "NORAD_CAT_ID": 43719, "ELEMENT_SET_NO": 999, "REV_AT_EPOCH": 37829, "BSTAR": 2.1475355e-05, "MEAN_MOTION_DOT": 1.05e-06, "MEAN_MOTION_DDOT": 0}, "tle": {"line1": "1 43719U 18096A   25336.08703481  .00000105  00000+0  21475-4 0  9996", "line2": "2 43719  98.0111  39.1163 0001755  68.8994 291.2404 14.78593325378299"}}, "geometry": {"type": "Point", "coordinates": [-158.46482803018537, -65.76721770989923]}}, {"type": "Feature", "properties": {"norad_id": 43783, "name": "KAZSTSAT", "group": "resource", "lat": 77.78853110529808, "lon": -130.40893482768172, "alt_km": 562.0488086262076, "timestamp": "2025-12-02T17:49:11.683369+00:00", "meta": {"OBJECT_NAME": "KAZSTSAT", "OBJECT_ID": "2018-099AB", "EPOCH": "2025-12-02T01:21:35.196768", "MEAN_MOTION": 14.99291992, "ECCENTRICITY": 0.00066196, "INCLINATION": 97.4552, "RA_OF_ASC_NODE": 11.7011, "ARG_OF_PERICENTER": 8.824, "MEAN_ANOMALY": 351.3099, "EPHEMERIS_TYPE": 0, "CLASSIFICATION_TYPE": "U", "NORAD_CAT_ID": 43783, "ELEMENT_SET_NO": 999, "REV_AT_EPOCH": 38176, "BSTAR": 0.00020697251, "MEAN_MOTION_DOT": 2.472e-05, "MEAN_MOTION_DDOT": 0}, "tle": {"line1": "1 43783U 18099AB  25336.05665737  .00002472  00000+0  20697-3 0  9991", "line2": "2 43783  97.4552  11.7011 0006619   8.8240 351.3099 14.99291992381764"}}, "geometry": {"type": "Point", "coordinates": [-130.40893482768172, 77.78853110529808]}}, {"type": "Feature", "properties": {"norad_id": 43831, "name": "SAUDISAT 5A", "group": "resource", "lat": -69.10321903981067, "lon": 56.85278077289939, "alt_km": 504.7914784374625, "timestamp": "2025-12-02T17:49:11.683379+00:00", "meta": {"OBJECT_NAME": "SAUDISAT 5A", "OBJECT_ID": "2018-102A", "EPOCH": "2025-12-02T11:49:52.762656", "MEAN_MOTION": 15.2545428, "ECCENTRICITY": 0.0011783, "INCLINATION": 97.3376, "RA_OF_ASC_NODE": 36.8829, "ARG_OF_PERICENTER": 107.7006, "MEAN_ANOMALY": 252.5519, "EPHEMERIS_TYPE": 0, "CLASSIFICATION_TYPE": "U", "NORAD_CAT_ID": 43831, "ELEMENT_SET_NO": 999, "REV_AT_EPOCH": 38566, "BSTAR": 0.00031533, "MEAN_MOTION_DOT": 7.922e-05, "MEAN_MOTION_DDOT": 0}, "tle": {"line1": "1 43831U 18102A   25336.49297179  .00007922  00000+0  31533-3 0  9995", "line2": "2 43831  97.3376  36.8829 0011783 107.7006 252.5519 15.25454280385666"}}, "geometry": {"type": "Point", "coordinates": [56.85278077289939, -69.10321903981067]}}, {"type": "Feature", "properties": {"norad_id": 43833, "name": "SAUDISAT 5B", "group": "resource", "lat": -30.775398942239352, "lon": 44.25525946944698, "alt_km": 501.0028712279436, "timestamp": "2025-12-02T17:49:11.683389+00:00", "meta": {"OBJECT_NAME": "SAUDISAT 5B", "OBJECT_ID": "2018-102C", "EPOCH": "2025-12-02T11:39:36.609696", "MEAN_MOTION": 15.25811924, "ECCENTRICITY": 0.0012442, "INCLINATION": 97.347, "RA_OF_ASC_NODE": 39.5961, "ARG_OF_PERICENTER": 110.3146, "MEAN_ANOMALY": 249.9431, "EPHEMERIS_TYPE": 0, "CLASSIFICATION_TYPE": "U", "NORAD_CAT_ID": 43833, "ELEMENT_SET_NO": 999, "REV_AT_EPOCH": 38577, "BSTAR": 0.00030323, "MEAN_MOTION_DOT": 7.699e-05, "MEAN_MOTION_DDOT": 0}, "tle": {"line1": "1 43833U 18102C   25336.48584039  .00007699  00000+0  30323-3 0  9997", "line2": "2 43833  97.3470  39.5961 0012442 110.3146 249.9431 15.25811924385775"}}, "geometry": {"type": "Point", "coordinates": [44.25525946944698, -30.775398942239352]}}]}